start=new Date('2022-05-14T00:00:00.000Z').valueOf();
sats=[{"MEAN_MOTION_DOT":"0.00000700","CENTER_NAME":"EARTH","TLE_LINE2":"2 45772  53.0533 342.7613 0001148  96.5859 263.5260 15.06404179106376","MEAN_ELEMENT_THEORY":"SGP4","RA_OF_ASC_NODE":"342.7613","LAUNCH_DATE":"2020-06-13","TIME_SYSTEM":"UTC","REF_FRAME":"TEME","EPHEMERIS_TYPE":"0","TLE_LINE1":"1 45772U 20038AU  22133.85355195  .00000700  00000-0  65885-4 0  9993","ARG_OF_PERICENTER":"96.5859","FILE":"3444395","APOAPSIS":"547.996","BSTAR":"0.00006588500000","NORAD_CAT_ID":"45772","ECCENTRICITY":"0.00011480","PERIAPSIS":"546.406","MEAN_MOTION":"15.06404179","OBJECT_NAME":"STARLINK-1470","OBJECT_ID":"2020-038AU","MEAN_MOTION_DDOT":"0.0000000000000","COUNTRY_CODE":"US","GP_ID":"203476063","PERIOD":"95.592","SITE":"AFETR","DECAY_DATE":null,"CLASSIFICATION_TYPE":"U","ELEMENT_SET_NO":"999","OBJECT_TYPE":"PAYLOAD","REV_AT_EPOCH":"10637","RCS_SIZE":"LARGE","MEAN_ANOMALY":"263.5260","EPOCH":"2022-05-13T20:29:06.888480","INCLINATION":"53.0533","SEMIMAJOR_AXIS":"6925.336"},{"TIME_SYSTEM":"UTC","LAUNCH_DATE":"2020-06-13","REF_FRAME":"TEME","RA_OF_ASC_NODE":"342.8106","APOAPSIS":"548.133","FILE":"3444065","ARG_OF_PERICENTER":"68.0272","TLE_LINE1":"1 45773U 20038AV  22133.84618190 -.00000654  00000-0 -25032-4 0  9990","EPHEMERIS_TYPE":"0","TLE_LINE2":"2 45773  53.0567 342.8106 0001343  68.0272 292.0860 15.06403477107332","MEAN_MOTION_DOT":"-0.00000654","CENTER_NAME":"EARTH","MEAN_ELEMENT_THEORY":"SGP4","OBJECT_TYPE":"PAYLOAD","REV_AT_EPOCH":"10733","ELEMENT_SET_NO":"999","DECAY_DATE":null,"CLASSIFICATION_TYPE":"U","PERIOD":"95.592","GP_ID":"203448890","SITE":"AFETR","COUNTRY_CODE":"US","MEAN_MOTION_DDOT":"0.0000000000000","INCLINATION":"53.0567","SEMIMAJOR_AXIS":"6925.338","MEAN_ANOMALY":"292.0860","EPOCH":"2022-05-13T20:18:30.116160","RCS_SIZE":"LARGE","NORAD_CAT_ID":"45773","ECCENTRICITY":"0.00013430","BSTAR":"-0.00002503200000","OBJECT_NAME":"STARLINK-1482","OBJECT_ID":"2020-038AV","MEAN_MOTION":"15.06403477","PERIAPSIS":"546.273"},{"APOAPSIS":"548.320","TLE_LINE1":"1 45774U 20038AW  22133.88304071  .00000534  00000-0  54735-4 0  9992","ARG_OF_PERICENTER":"65.1896","EPHEMERIS_TYPE":"0","FILE":"3444064","REF_FRAME":"TEME","TIME_SYSTEM":"UTC","LAUNCH_DATE":"2020-06-13","RA_OF_ASC_NODE":"342.6438","MEAN_ELEMENT_THEORY":"SGP4","TLE_LINE2":"2 45774  53.0564 342.6438 0001595  65.1896 294.9259 15.06399313107498","CENTER_NAME":"EARTH","MEAN_MOTION_DOT":"0.00000534","EPOCH":"2022-05-13T21:11:34.717344","MEAN_ANOMALY":"294.9259","SEMIMAJOR_AXIS":"6925.351","INCLINATION":"53.0564","RCS_SIZE":"LARGE","CLASSIFICATION_TYPE":"U","DECAY_DATE":null,"REV_AT_EPOCH":"10749","OBJECT_TYPE":"PAYLOAD","ELEMENT_SET_NO":"999","COUNTRY_CODE":"US","MEAN_MOTION_DDOT":"0.0000000000000","SITE":"AFETR","GP_ID":"203448872","PERIOD":"95.592","MEAN_MOTION":"15.06399313","OBJECT_ID":"2020-038AW","OBJECT_NAME":"STARLINK-1485","PERIAPSIS":"546.111","NORAD_CAT_ID":"45774","ECCENTRICITY":"0.00015950","BSTAR":"0.00005473500000"},{"PERIAPSIS":"546.208","OBJECT_ID":"2020-038AX","OBJECT_NAME":"STARLINK-1488","MEAN_MOTION":"15.06395603","BSTAR":"0.00002701300000","NORAD_CAT_ID":"45775","ECCENTRICITY":"0.00014710","RCS_SIZE":"LARGE","SEMIMAJOR_AXIS":"6925.362","INCLINATION":"53.0563","EPOCH":"2022-05-13T21:16:53.408928","MEAN_ANOMALY":"274.7083","SITE":"AFETR","PERIOD":"95.592","GP_ID":"203476312","MEAN_MOTION_DDOT":"0.0000000000000","COUNTRY_CODE":"US","ELEMENT_SET_NO":"999","OBJECT_TYPE":"PAYLOAD","REV_AT_EPOCH":"10638","CLASSIFICATION_TYPE":"U","DECAY_DATE":null,"MEAN_ELEMENT_THEORY":"SGP4","MEAN_MOTION_DOT":"0.00000121","CENTER_NAME":"EARTH","TLE_LINE2":"2 45775  53.0563 342.6277 0001471  85.4074 274.7083 15.06395603106381","FILE":"3444395","ARG_OF_PERICENTER":"85.4074","TLE_LINE1":"1 45775U 20038AX  22133.88672927  .00000121  00000-0  27013-4 0  9992","EPHEMERIS_TYPE":"0","APOAPSIS":"548.246","RA_OF_ASC_NODE":"342.6277","REF_FRAME":"TEME","LAUNCH_DATE":"2020-06-13","TIME_SYSTEM":"UTC"},{"MEAN_ELEMENT_THEORY":"SGP4","MEAN_MOTION_DOT":"0.00000353","CENTER_NAME":"EARTH","TLE_LINE2":"2 45776  53.0573 342.5814 0001506  63.5312 296.5832 15.06397663106382","FILE":"3444395","TLE_LINE1":"1 45776U 20038AY  22133.89410381  .00000353  00000-0  42614-4 0  9999","ARG_OF_PERICENTER":"63.5312","EPHEMERIS_TYPE":"0","APOAPSIS":"548.264","RA_OF_ASC_NODE":"342.5814","LAUNCH_DATE":"2020-06-13","TIME_SYSTEM":"UTC","REF_FRAME":"TEME","PERIAPSIS":"546.178","OBJECT_NAME":"STARLINK-1489","OBJECT_ID":"2020-038AY","MEAN_MOTION":"15.06397663","BSTAR":"0.00004261400000","ECCENTRICITY":"0.00015060","NORAD_CAT_ID":"45776","RCS_SIZE":"LARGE","INCLINATION":"53.0573","SEMIMAJOR_AXIS":"6925.356","MEAN_ANOMALY":"296.5832","EPOCH":"2022-05-13T21:27:30.569184","PERIOD":"95.592","GP_ID":"203476563","SITE":"AFETR","COUNTRY_CODE":"US","MEAN_MOTION_DDOT":"0.0000000000000","REV_AT_EPOCH":"10638","OBJECT_TYPE":"PAYLOAD","ELEMENT_SET_NO":"999","DECAY_DATE":null,"CLASSIFICATION_TYPE":"U"},{"MEAN_MOTION_DOT":"-0.00000264","CENTER_NAME":"EARTH","TLE_LINE2":"2 45777  53.0567 342.6169 0001384  57.6437 302.4686 15.06395341107506","MEAN_ELEMENT_THEORY":"SGP4","RA_OF_ASC_NODE":"342.6169","LAUNCH_DATE":"2020-06-13","TIME_SYSTEM":"UTC","REF_FRAME":"TEME","TLE_LINE1":"1 45777U 20038AZ  22133.89041871 -.00000264  00000-0  11619-5 0  9998","ARG_OF_PERICENTER":"57.6437","EPHEMERIS_TYPE":"0","FILE":"3444064","APOAPSIS":"548.186","BSTAR":"0.00000116190000","NORAD_CAT_ID":"45777","ECCENTRICITY":"0.00013840","PERIAPSIS":"546.269","MEAN_MOTION":"15.06395341","OBJECT_NAME":"STARLINK-1490","OBJECT_ID":"2020-038AZ","COUNTRY_CODE":"US","MEAN_MOTION_DDOT":"0.0000000000000","GP_ID":"203448877","PERIOD":"95.592","SITE":"AFETR","DECAY_DATE":null,"CLASSIFICATION_TYPE":"U","OBJECT_TYPE":"PAYLOAD","REV_AT_EPOCH":"10750","ELEMENT_SET_NO":"999","RCS_SIZE":"LARGE","MEAN_ANOMALY":"302.4686","EPOCH":"2022-05-13T21:22:12.176544","INCLINATION":"53.0567","SEMIMAJOR_AXIS":"6925.363"},{"REF_FRAME":"TEME","TIME_SYSTEM":"UTC","LAUNCH_DATE":"2020-06-13","RA_OF_ASC_NODE":"342.6836","APOAPSIS":"548.254","TLE_LINE1":"1 45778U 20038BA  22133.87198668  .00000681  00000-0  64633-4 0  9999","EPHEMERIS_TYPE":"0","ARG_OF_PERICENTER":"93.0320","FILE":"3444066","TLE_LINE2":"2 45778  53.0551 342.6836 0001477  93.0320 267.0838 15.06394311107487","CENTER_NAME":"EARTH","MEAN_MOTION_DOT":"0.00000681","MEAN_ELEMENT_THEORY":"SGP4","CLASSIFICATION_TYPE":"U","DECAY_DATE":null,"OBJECT_TYPE":"PAYLOAD","REV_AT_EPOCH":"10748","ELEMENT_SET_NO":"999","MEAN_MOTION_DDOT":"0.0000000000000","COUNTRY_CODE":"US","SITE":"AFETR","PERIOD":"95.593","GP_ID":"203448904","EPOCH":"2022-05-13T20:55:39.649152","MEAN_ANOMALY":"267.0838","SEMIMAJOR_AXIS":"6925.366","INCLINATION":"53.0551","RCS_SIZE":"LARGE","ECCENTRICITY":"0.00014770","NORAD_CAT_ID":"45778","BSTAR":"0.00006463300000","MEAN_MOTION":"15.06394311","OBJECT_NAME":"STARLINK-1491","OBJECT_ID":"2020-038BA","PERIAPSIS":"546.208"},{"OBJECT_TYPE":"PAYLOAD","REV_AT_EPOCH":"10748","ELEMENT_SET_NO":"999","DECAY_DATE":null,"CLASSIFICATION_TYPE":"U","PERIOD":"95.593","GP_ID":"203448914","SITE":"AFETR","COUNTRY_CODE":"US","MEAN_MOTION_DDOT":"0.0000000000000","INCLINATION":"53.0570","SEMIMAJOR_AXIS":"6925.372","MEAN_ANOMALY":"283.0359","EPOCH":"2022-05-13T20:50:21.621120","RCS_SIZE":"LARGE","NORAD_CAT_ID":"45779","ECCENTRICITY":"0.00014050","BSTAR":"0.00003082400000","OBJECT_NAME":"STARLINK-1492","OBJECT_ID":"2020-038BB","MEAN_MOTION":"15.06392315","PERIAPSIS":"546.264","LAUNCH_DATE":"2020-06-13","TIME_SYSTEM":"UTC","REF_FRAME":"TEME","RA_OF_ASC_NODE":"342.6972","APOAPSIS":"548.210","FILE":"3444066","EPHEMERIS_TYPE":"0","TLE_LINE1":"1 45779U 20038BB  22133.86830580  .00000178  00000-0  30824-4 0  9991","ARG_OF_PERICENTER":"77.0786","TLE_LINE2":"2 45779  53.0570 342.6972 0001405  77.0786 283.0359 15.06392315107487","MEAN_MOTION_DOT":"0.00000178","CENTER_NAME":"EARTH","MEAN_ELEMENT_THEORY":"SGP4"},{"TIME_SYSTEM":"UTC","LAUNCH_DATE":"2020-06-13","REF_FRAME":"TEME","RA_OF_ASC_NODE":"342.6653","APOAPSIS":"548.185","ARG_OF_PERICENTER":"67.0780","TLE_LINE1":"1 45780U 20038BC  22133.87935659 -.00000662  00000-0 -25544-4 0  9990","EPHEMERIS_TYPE":"0","FILE":"3444395","TLE_LINE2":"2 45780  53.0534 342.6653 0001394  67.0780 293.0355 15.06397975106365","MEAN_MOTION_DOT":"-0.00000662","CENTER_NAME":"EARTH","MEAN_ELEMENT_THEORY":"SGP4","DECAY_DATE":null,"CLASSIFICATION_TYPE":"U","ELEMENT_SET_NO":"999","OBJECT_TYPE":"PAYLOAD","REV_AT_EPOCH":"10636","MEAN_MOTION_DDOT":"0.0000000000000","COUNTRY_CODE":"US","GP_ID":"203476064","PERIOD":"95.592","SITE":"AFETR","MEAN_ANOMALY":"293.0355","EPOCH":"2022-05-13T21:06:16.409376","INCLINATION":"53.0534","SEMIMAJOR_AXIS":"6925.355","RCS_SIZE":"LARGE","ECCENTRICITY":"0.00013940","NORAD_CAT_ID":"45780","BSTAR":"-0.00002554400000","MEAN_MOTION":"15.06397975","OBJECT_NAME":"STARLINK-1496","OBJECT_ID":"2020-038BC","PERIAPSIS":"546.254"},{"MEAN_ELEMENT_THEORY":"SGP4","TLE_LINE2":"2 45781  53.0551 342.8436 0001924  66.2768 293.8423 15.06405418107291","CENTER_NAME":"EARTH","MEAN_MOTION_DOT":"0.00003257","APOAPSIS":"548.529","FILE":"3444066","TLE_LINE1":"1 45781U 20038BD  22133.83880762  .00003257  00000-0  23741-3 0  9998","EPHEMERIS_TYPE":"0","ARG_OF_PERICENTER":"66.2768","REF_FRAME":"TEME","LAUNCH_DATE":"2020-06-13","TIME_SYSTEM":"UTC","RA_OF_ASC_NODE":"342.8436","OBJECT_NAME":"STARLINK-1497","OBJECT_ID":"2020-038BD","MEAN_MOTION":"15.06405418","PERIAPSIS":"545.865","NORAD_CAT_ID":"45781","ECCENTRICITY":"0.00019240","BSTAR":"0.00023741000000","SEMIMAJOR_AXIS":"6925.332","INCLINATION":"53.0551","EPOCH":"2022-05-13T20:07:52.978368","MEAN_ANOMALY":"293.8423","RCS_SIZE":"LARGE","REV_AT_EPOCH":"10729","OBJECT_TYPE":"PAYLOAD","ELEMENT_SET_NO":"999","CLASSIFICATION_TYPE":"U","DECAY_DATE":null,"SITE":"AFETR","PERIOD":"95.592","GP_ID":"203448916","MEAN_MOTION_DDOT":"0.0000000000000","COUNTRY_CODE":"US"}];
